CCSDS_OMM_VERS = 2.0
CREATION_DATE  = 
ORIGINATOR     = 

OBJECT_NAME    = ALOS-2
OBJECT_ID      = 2014-029A
CENTER_NAME    = EARTH
REF_FRAME      = TEME
TIME_SYSTEM    = UTC
MEAN_ELEMENT_THEORY = SGP/SGP4

EPOCH          = 2026-03-10T20:50:42.806400
MEAN_MOTION    = 14.79510259
ECCENTRICITY   = .0001397
INCLINATION    = 97.9186
RA_OF_ASC_NODE = 168.4482
ARG_OF_PERICENTER = 95.4787
MEAN_ANOMALY   = 264.6584

EPHEMERIS_TYPE = 0
CLASSIFICATION_TYPE = U
NORAD_CAT_ID   = 39766
ELEMENT_SET_NO = 999
REV_AT_EPOCH   = 63704
BSTAR          = .383E-3
MEAN_MOTION_DOT = .2813E-4
MEAN_MOTION_DDOT = 0

CCSDS_OMM_VERS = 2.0
CREATION_DATE  = 
ORIGINATOR     = 

OBJECT_NAME    = YAOGAN-29
OBJECT_ID      = 2015-069A
CENTER_NAME    = EARTH
REF_FRAME      = TEME
TIME_SYSTEM    = UTC
MEAN_ELEMENT_THEORY = SGP/SGP4

EPOCH          = 2026-03-10T20:58:36.463296
MEAN_MOTION    = 14.82995089
ECCENTRICITY   = .0001816
INCLINATION    = 98.0144
RA_OF_ASC_NODE = 98.3067
ARG_OF_PERICENTER = 34.0661
MEAN_ANOMALY   = 326.0668

EPHEMERIS_TYPE = 0
CLASSIFICATION_TYPE = U
NORAD_CAT_ID   = 41038
ELEMENT_SET_NO = 999
REV_AT_EPOCH   = 55605
BSTAR          = .88326E-6
MEAN_MOTION_DOT = -.47E-6
MEAN_MOTION_DDOT = 0

CCSDS_OMM_VERS = 2.0
CREATION_DATE  = 
ORIGINATOR     = 

OBJECT_NAME    = ASTRO-H (HITOMI)
OBJECT_ID      = 2016-012A
CENTER_NAME    = EARTH
REF_FRAME      = TEME
TIME_SYSTEM    = UTC
MEAN_ELEMENT_THEORY = SGP/SGP4

EPOCH          = 2026-03-10T19:46:29.034624
MEAN_MOTION    = 15.10015481
ECCENTRICITY   = .0009805
INCLINATION    = 31.0007
RA_OF_ASC_NODE = 349.2282
ARG_OF_PERICENTER = 342.4768
MEAN_ANOMALY   = 17.5531

EPHEMERIS_TYPE = 0
CLASSIFICATION_TYPE = U
NORAD_CAT_ID   = 41337
ELEMENT_SET_NO = 999
REV_AT_EPOCH   = 55240
BSTAR          = .23588E-3
MEAN_MOTION_DOT = .4027E-4
MEAN_MOTION_DDOT = 0

CCSDS_OMM_VERS = 2.0
CREATION_DATE  = 
ORIGINATOR     = 

OBJECT_NAME    = HXMT (HUIYAN)
OBJECT_ID      = 2017-034A
CENTER_NAME    = EARTH
REF_FRAME      = TEME
TIME_SYSTEM    = UTC
MEAN_ELEMENT_THEORY = SGP/SGP4

EPOCH          = 2026-03-10T21:31:07.446144
MEAN_MOTION    = 15.17484695
ECCENTRICITY   = .0033059
INCLINATION    = 43.0158
RA_OF_ASC_NODE = 9.9631
ARG_OF_PERICENTER = 243.3318
MEAN_ANOMALY   = 116.4143

EPHEMERIS_TYPE = 0
CLASSIFICATION_TYPE = U
NORAD_CAT_ID   = 42758
ELEMENT_SET_NO = 999
REV_AT_EPOCH   = 48272
BSTAR          = .38682E-3
MEAN_MOTION_DOT = .7769E-4
MEAN_MOTION_DDOT = 0

CCSDS_OMM_VERS = 2.0
CREATION_DATE  = 
ORIGINATOR     = 

OBJECT_NAME    = SAOCOM 1A
OBJECT_ID      = 2018-076A
CENTER_NAME    = EARTH
REF_FRAME      = TEME
TIME_SYSTEM    = UTC
MEAN_ELEMENT_THEORY = SGP/SGP4

EPOCH          = 2026-03-09T23:06:42.673824
MEAN_MOTION    = 14.82173643
ECCENTRICITY   = .0001339
INCLINATION    = 97.8895
RA_OF_ASC_NODE = 257.1316
ARG_OF_PERICENTER = 83.6952
MEAN_ANOMALY   = 276.4413

EPHEMERIS_TYPE = 0
CLASSIFICATION_TYPE = U
NORAD_CAT_ID   = 43641
ELEMENT_SET_NO = 999
REV_AT_EPOCH   = 40140
BSTAR          = .17043E-3
MEAN_MOTION_DOT = .1305E-4
MEAN_MOTION_DDOT = 0

CCSDS_OMM_VERS = 2.0
CREATION_DATE  = 
ORIGINATOR     = 

OBJECT_NAME    = H-2A R/B
OBJECT_ID      = 2018-084L
CENTER_NAME    = EARTH
REF_FRAME      = TEME
TIME_SYSTEM    = UTC
MEAN_ELEMENT_THEORY = SGP/SGP4

EPOCH          = 2026-03-10T13:50:33.656352
MEAN_MOTION    = 15.41390798
ECCENTRICITY   = .0025388
INCLINATION    = 98.8729
RA_OF_ASC_NODE = 287.1541
ARG_OF_PERICENTER = 22.2756
MEAN_ANOMALY   = 337.9583

EPHEMERIS_TYPE = 0
CLASSIFICATION_TYPE = U
NORAD_CAT_ID   = 43682
ELEMENT_SET_NO = 999
REV_AT_EPOCH   = 40591
BSTAR          = .5579E-3
MEAN_MOTION_DOT = .23504E-3
MEAN_MOTION_DDOT = 0

CCSDS_OMM_VERS = 2.0
CREATION_DATE  = 
ORIGINATOR     = 

OBJECT_NAME    = SAOCOM 1B
OBJECT_ID      = 2020-059A
CENTER_NAME    = EARTH
REF_FRAME      = TEME
TIME_SYSTEM    = UTC
MEAN_ELEMENT_THEORY = SGP/SGP4

EPOCH          = 2026-03-10T19:18:19.036800
MEAN_MOTION    = 14.82149543
ECCENTRICITY   = .0001361
INCLINATION    = 97.8894
RA_OF_ASC_NODE = 257.0587
ARG_OF_PERICENTER = 85.6378
MEAN_ANOMALY   = 274.4991

EPHEMERIS_TYPE = 0
CLASSIFICATION_TYPE = U
NORAD_CAT_ID   = 46265
ELEMENT_SET_NO = 999
REV_AT_EPOCH   = 29891
BSTAR          = .13051E-3
MEAN_MOTION_DOT = .987E-5
MEAN_MOTION_DDOT = 0

CCSDS_OMM_VERS = 2.0
CREATION_DATE  = 
ORIGINATOR     = 

OBJECT_NAME    = CSS (TIANHE)
OBJECT_ID      = 2021-035A
CENTER_NAME    = EARTH
REF_FRAME      = TEME
TIME_SYSTEM    = UTC
MEAN_ELEMENT_THEORY = SGP/SGP4

EPOCH          = 2026-03-10T19:16:55.378272
MEAN_MOTION    = 15.60727089
ECCENTRICITY   = .0006965
INCLINATION    = 41.4661
RA_OF_ASC_NODE = 201.3850
ARG_OF_PERICENTER = 279.9751
MEAN_ANOMALY   = 80.0301

EPHEMERIS_TYPE = 0
CLASSIFICATION_TYPE = U
NORAD_CAT_ID   = 48274
ELEMENT_SET_NO = 999
REV_AT_EPOCH   = 27778
BSTAR          = .36544E-3
MEAN_MOTION_DOT = .3107E-3
MEAN_MOTION_DDOT = 0

CCSDS_OMM_VERS = 2.0
CREATION_DATE  = 
ORIGINATOR     = 

OBJECT_NAME    = COSMOS 2550
OBJECT_ID      = 2021-056A
CENTER_NAME    = EARTH
REF_FRAME      = TEME
TIME_SYSTEM    = UTC
MEAN_ELEMENT_THEORY = SGP/SGP4

EPOCH          = 2026-03-10T21:16:49.824192
MEAN_MOTION    = 15.33830688
ECCENTRICITY   = .0008424
INCLINATION    = 67.1455
RA_OF_ASC_NODE = 37.3105
ARG_OF_PERICENTER = 269.5139
MEAN_ANOMALY   = 90.5050

EPHEMERIS_TYPE = 0
CLASSIFICATION_TYPE = U
NORAD_CAT_ID   = 48865
ELEMENT_SET_NO = 999
REV_AT_EPOCH   = 26364
BSTAR          = .10455E-6
MEAN_MOTION_DOT = -.188E-5
MEAN_MOTION_DDOT = 0

CCSDS_OMM_VERS = 2.0
CREATION_DATE  = 
ORIGINATOR     = 

OBJECT_NAME    = CZ-2C R/B
OBJECT_ID      = 2022-058K
CENTER_NAME    = EARTH
REF_FRAME      = TEME
TIME_SYSTEM    = UTC
MEAN_ELEMENT_THEORY = SGP/SGP4

EPOCH          = 2026-03-10T20:41:55.101984
MEAN_MOTION    = 15.54329548
ECCENTRICITY   = .0042139
INCLINATION    = 50.1895
RA_OF_ASC_NODE = 312.2564
ARG_OF_PERICENTER = 205.8829
MEAN_ANOMALY   = 154.0034

EPHEMERIS_TYPE = 0
CLASSIFICATION_TYPE = U
NORAD_CAT_ID   = 52794
ELEMENT_SET_NO = 999
REV_AT_EPOCH   = 21031
BSTAR          = .5818E-3
MEAN_MOTION_DOT = .40089E-3
MEAN_MOTION_DDOT = 0

CCSDS_OMM_VERS = 2.0
CREATION_DATE  = 
ORIGINATOR     = 

OBJECT_NAME    = CZ-2C R/B
OBJECT_ID      = 2022-132E
CENTER_NAME    = EARTH
REF_FRAME      = TEME
TIME_SYSTEM    = UTC
MEAN_ELEMENT_THEORY = SGP/SGP4

EPOCH          = 2026-03-10T12:35:50.419968
MEAN_MOTION    = 15.61920631
ECCENTRICITY   = .0020627
INCLINATION    = 97.2967
RA_OF_ASC_NODE = 72.8671
ARG_OF_PERICENTER = 88.6324
MEAN_ANOMALY   = 271.7296

EPHEMERIS_TYPE = 0
CLASSIFICATION_TYPE = U
NORAD_CAT_ID   = 54039
ELEMENT_SET_NO = 999
REV_AT_EPOCH   = 19050
BSTAR          = .50113E-3
MEAN_MOTION_DOT = .44069E-3
MEAN_MOTION_DDOT = 0

CCSDS_OMM_VERS = 2.0
CREATION_DATE  = 
ORIGINATOR     = 

OBJECT_NAME    = GSLV R/B
OBJECT_ID      = 2022-138AN
CENTER_NAME    = EARTH
REF_FRAME      = TEME
TIME_SYSTEM    = UTC
MEAN_ELEMENT_THEORY = SGP/SGP4

EPOCH          = 2026-03-10T18:58:20.146944
MEAN_MOTION    = 14.96783710
ECCENTRICITY   = .0023121
INCLINATION    = 87.3873
RA_OF_ASC_NODE = 165.9935
ARG_OF_PERICENTER = 142.9300
MEAN_ANOMALY   = 217.3534

EPHEMERIS_TYPE = 0
CLASSIFICATION_TYPE = U
NORAD_CAT_ID   = 54149
ELEMENT_SET_NO = 999
REV_AT_EPOCH   = 18409
BSTAR          = .33937E-3
MEAN_MOTION_DOT = .393E-4
MEAN_MOTION_DDOT = 0

